NORAD_CAT_ID,OBJECT_NAME,OBJECT_TYPE,EPOCH,MEAN_MOTION,ECCENTRICITY,INCLINATION,RA_OF_ASC_NODE,ARG_OF_PERICENTER,MEAN_ANOMALY,BSTAR,MEAN_MOTION_DOT,MEAN_MOTION_DDOT,TLE_LINE0,TLE_LINE1,TLE_LINE2,SEMIMAJOR_AXIS,PERIOD,APOGEE,PERIGEE,DECAYED
53014.0,STARLINK-4183,PAYLOAD,2024-08-19 15:03:31,15.08844286,0.000111,53.2167,109.7729,101.0023,259.1094,0.00019011,2.739e-05,0.0,0 STARLINK-4183,1 53014U 22076AE  24232.62745337  .00002739  00000-0  19011-3 0  9996,2 53014  53.2167 109.7729 0001110 101.0023 259.1094 15.08844286117379,6917.867,95.437,540.5,538.964,0.0
53014.0,STARLINK-4183,PAYLOAD,2024-08-19 21:25:05,15.08831212,0.0001402,53.2159,108.5748,96.7121,263.4031,-1.1889e-05,-4.77e-06,0.0,0 STARLINK-4183,1 53014U 22076AE  24232.89242181 -.00000477  00000-0 -11889-4 0  9999,2 53014  53.2159 108.5748 0001402  96.7121 263.4031 15.08831212117881,6917.907,95.438,540.742,538.802,0.0
53014.0,STARLINK-4183,PAYLOAD,2024-08-20 02:11:14,15.08835858,0.0001563,53.2165,107.6819,100.8295,259.2873,4.5231e-05,4.32e-06,0.0,0 STARLINK-4183,1 53014U 22076AE  24233.09114001  .00000432  00000-0  45231-4 0  9998,2 53014  53.2165 107.6819 0001563 100.8295 259.2873 15.08835858117443,6917.893,95.438,540.839,538.677,0.0
53014.0,STARLINK-4183,PAYLOAD,2024-08-20 21:15:52,15.0884157,0.0001447,53.2168,104.1156,94.2627,265.8531,0.00013267,1.824e-05,0.0,0 STARLINK-4183,1 53014U 22076AE  24233.88601881  .00001824  00000-0  13267-3 0  9991,2 53014  53.2168 104.1156 0001447  94.2627 265.8531 15.08841570118036,6917.876,95.437,540.742,538.74,0.0
53014.0,STARLINK-4183,PAYLOAD,2024-08-21 00:26:38,15.0884565,0.0001457,53.2166,103.5214,84.7824,275.3335,0.00018788,2.704e-05,0.0,0 STARLINK-4183,1 53014U 22076AE  24234.01849617  .00002704  00000-0  18788-3 0  9999,2 53014  53.2166 103.5214 0001457  84.7824 275.3335 15.08845650117586,6917.863,95.437,540.736,538.72,0.0
53014.0,STARLINK-4183,PAYLOAD,2024-08-21 22:42:02,15.08838551,0.0001333,53.215,99.3548,115.7152,244.3978,9.2269e-05,1.181e-05,0.0,0 STARLINK-4183,1 53014U 22076AE  24234.94586053  .00001181  00000-0  92269-4 0  9998,2 53014  53.2150  99.3548 0001333 115.7152 244.3978 15.08838551118192,6917.885,95.438,540.672,538.828,0.0
